UNKNOWN                 
1 82798U          26059.48190512  .00001920  00000+0  83774-3 0  9999
2 82798  82.9509 129.4832 0027126 292.8683  82.6977 14.23311743323437
UNKNOWN                 
1 82820U          26085.95745383  .00002874  00000+0  99701-3 0  9994
2 82820  99.7965 265.6425 0048687  79.2026 281.4631 14.35847230640581
UNKNOWN                 
1 82829U          26084.48836679  .00000210  00000+0  69735-2 0  9994
2 82829  65.0952 253.4585 0175129 314.9407  65.8445 11.29179881497686
UNKNOWN                 
1 82854U          26084.98077086  .00001806  00000+0  13992-2 0  9992
2 82854  82.6915 343.6072 0131694 349.2066  10.6274 13.88237661622127
UNKNOWN                 
1 82873U          26084.48432750  .00003591  00000+0  15357-2 0  9991
2 82873  99.9944 357.7670 0040407 358.9380   1.1703 14.25270445635864
UNKNOWN                 
1 82875U          26084.20134621  .00001236  00000+0  33149-3 0  9993
2 82875  98.6899  70.1026 0377138 349.2937  10.0367 14.15354708558961
UNKNOWN                 
1 82893U          26086.29846434  .00007564  00000+0  27338-2 0  9998
2 82893  98.9608 209.9079 0025442 106.6547 253.7432 14.33627863438941
UNKNOWN                 
1 82912U          26084.29157994  .00001738  00000+0  74405-3 0  9999
2 82912  65.8336 297.7839 0770106 222.3175 131.5945 13.28455214592945
UNKNOWN                 
1 82961U          26084.38700544  .00008543  00000+0  12316-1 0  9990
2 82961  99.8227 238.6265 0408835 127.4248 236.4817 13.26472724569305
UNKNOWN                 
1 82965U          26072.67873180  .00001132  00000+0  15749-2 0  9991
2 82965 100.1074 160.1438 0003543 183.0318 177.0799 13.60232436536810
UNKNOWN                 
1 83903U          26086.12444941 -.00000039  00000+0  00000+0 0  9995
2 83903   5.9281 289.7191 0122020 254.1949  73.2712  0.99114795 44698
UNKNOWN                 
1 83934U          26086.23512318 -.00000216  00000+0  00000+0 0  9992
2 83934   5.5490 296.8485 0223121 275.9173 287.1473  1.02663674 46354
